API VERSION: 1.2
API SOURCE: NASA/JPL Horizons API

*******************************************************************************
 Revised: September 25, 2025           Uranus                               799
 
 PHYSICAL DATA:
  Mass x10^24 (kg)      = 86.813          Density (g/cm^3)       =  1.271
  Equat. radius (1 bar) = 25559+-4 km     Polar radius (km)      = 24973+-20
  Vol. Mean Radius (km) = 25362+-12       Flattening             =  0.02293
  Geometric Albedo      = 0.51
  Sid. rot. period (III)= 17.24+-0.01 h   Sid. rot. rate (rad/s) = -0.000101237
  Mean solar day, h     =~17.24           Rocky core mass (Mc/M) =  0.0012        
  GM (km^3/s^2)         = 5793950.6103    GM 1-sigma (km^3/s^2)  = +-4.3 
  Equ. grav, ge (m/s^2) =  8.87           Pol. grav, gp (m/s^2)  =   9.19+-0.02
  Visual magnitude V(1,0)= -7.11
  Vis. mag. (opposition)=  +5.52          Obliquity to orbit     = 97.77 deg
  Sidereal orbit period = 84.0120465 y    Sidereal orbit period  = 30685.4 d
  Mean daily motion     = 0.01176904 dg/d Mean orbit velocity    =  6.8 km/s
  Atmos. temp. (1 bar)  =  76+-2 K        Escape speed, km/s     =  21.3           
  Aroche(ice)/Rp        =  2.20           Hill's sphere rad., Rp = 2700
                                 Perihelion   Aphelion    Mean
  Solar Constant (W/m^2)         4.09         3.39        3.71
  Maximum Planetary IR (W/m^2)   0.72         0.55        0.63
  Minimum Planetary IR (W/m^2)   0.72         0.55        0.63
*******************************************************************************


*******************************************************************************
Ephemeris / API_USER Thu Feb 19 13:06:58 2026 Pasadena, USA      / Horizons
*******************************************************************************
Target body name: Uranus (799)                    {source: ura184_merged}
Center body name: Earth (399)                     {source: DE441}
Center-site name: BODY CENTER
*******************************************************************************
Start time      : A.D. 2033-Feb-27 17:24:00.0000 TDB
Stop  time      : A.D. 2033-Mar-02 17:24:00.0000 TDB
Step-size       : 60 minutes
*******************************************************************************
Center geodetic : 0.0, 0.0, 0.0                   {E-lon(deg),Lat(deg),Alt(km)}
Center cylindric: 0.0, 0.0, 0.0                   {E-lon(deg),Dxy(km),Dz(km)}
Center radii    : 6378.137, 6378.137, 6356.752 km {Equator_a, b, pole_c}
Output units    : AU-D
Calendar mode   : Mixed Julian/Gregorian
Output type     : GEOMETRIC cartesian states
Output format   : 3 (position, velocity, LT, range, range-rate)
EOP file        : eop.260218.p260517
EOP coverage    : DATA-BASED 1962-JAN-20 TO 2026-FEB-18. PREDICTS-> 2026-MAY-16
Reference frame : Ecliptic of J2000.0
*******************************************************************************
JDTDB
   X     Y     Z
   VX    VY    VZ
   LT    RG    RR
*******************************************************************************
$$SOE
2463658.141666667 = A.D. 2033-Mar-01 15:24:00.0000 TDB 
 X = 9.347189598192184E-01 Y = 1.868223836624657E+01 Z = 7.051594099200054E-02
 VX= 1.953836411894255E-03 VY= 1.614935052569196E-02 VZ= 4.878288240237149E-05
 LT= 1.080353432630646E-01 RG= 1.870573982511878E+01 RR= 1.622687724346977E-02
2463658.183333333 = A.D. 2033-Mar-01 16:24:00.0000 TDB 
 X = 9.348001209333118E-01 Y = 1.868291134108021E+01 Z = 7.051797340996532E-02
 VX= 1.941896474737362E-03 VY= 1.615343989902668E-02 VZ= 4.877312346803812E-05
 LT= 1.080392486260327E-01 RG= 1.870641601775536E+01 RR= 1.623036767919923E-02
2463658.225000000 = A.D. 2033-Mar-01 17:24:00.0000 TDB 
 X = 9.348807844760538E-01 Y = 1.868358448610584E+01 Z = 7.052000541509194E-02
 VX= 1.929952981687998E-03 VY= 1.615751974526414E-02 VZ= 4.876308667124804E-05
 LT= 1.080431548277844E-01 RG= 1.870709235562280E+01 RR= 1.623384832897051E-02
2463658.266666667 = A.D. 2033-Mar-01 18:24:00.0000 TDB 
 X = 9.349609502987003E-01 Y = 1.868425780092695E+01 Z = 7.052203699843082E-02
 VX= 1.918005906988747E-03 VY= 1.616159008544533E-02 VZ= 4.875289913927704E-05
 LT= 1.080470618659672E-01 RG= 1.870776883831381E+01 RR= 1.623731921395594E-02
2463658.308333333 = A.D. 2033-Mar-01 19:24:00.0000 TDB 
 X = 9.350406182517311E-01 Y = 1.868493128514784E+01 Z = 7.052406815627890E-02
 VX= 1.906055239707966E-03 VY= 1.616565093667847E-02 VZ= 4.874268094372852E-05
 LT= 1.080509697382337E-01 RG= 1.870844546542193E+01 RR= 1.624078035211473E-02
2463658.350000000 = A.D. 2033-Mar-01 20:24:00.0000 TDB 
 X = 9.351197881855334E-01 Y = 1.868560493837334E+01 Z = 7.052609888923943E-02
 VX= 1.894100986848639E-03 VY= 1.616970230704951E-02 VZ= 4.873251234926969E-05
 LT= 1.080548784422396E-01 RG= 1.870912223654127E+01 RR= 1.624423175314207E-02
2463658.391666667 = A.D. 2033-Mar-01 21:24:00.0000 TDB 
 X = 9.351984599512075E-01 Y = 1.868627876020831E+01 Z = 7.052812919957070E-02
 VX= 1.882143175953153E-03 VY= 1.617374418793149E-02 VZ= 4.872238108795332E-05
 LT= 1.080587879756414E-01 RG= 1.870979915126604E+01 RR= 1.624767341071985E-02
2463658.433333333 = A.D. 2033-Mar-01 22:24:00.0000 TDB 
 X = 9.352766334014569E-01 Y = 1.868695275025671E+01 Z = 7.053015908574356E-02
 VX= 1.870181856562434E-03 VY= 1.617777654280269E-02 VZ= 4.871210203724719E-05
 LT= 1.080626983360910E-01 RG= 1.871047620918971E+01 RR= 1.625110529111934E-02
2463658.475000000 = A.D. 2033-Mar-01 23:24:00.0000 TDB 
 X = 9.353543083915021E-01 Y = 1.868762690812015E+01 Z = 7.053218853295622E-02
 VX= 1.858217099612461E-03 VY= 1.618179929146613E-02 VZ= 4.870119960917757E-05
 LT= 1.080666095212273E-01 RG= 1.871115340990347E+01 RR= 1.625452731696742E-02
2463658.516666667 = A.D. 2033-Mar-02 00:24:00.0000 TDB 
 X = 9.354314847822202E-01 Y = 1.868830123339557E+01 Z = 7.053421750156466E-02
 VX= 1.846249234824324E-03 VY= 1.618581230988611E-02 VZ= 4.868931990154056E-05
 LT= 1.080705215286638E-01 RG= 1.871183075299408E+01 RR= 1.625793938050482E-02
2463658.558333333 = A.D. 2033-Mar-02 01:24:00.0000 TDB 
 X = 9.355081624412677E-01 Y = 1.868897572568439E+01 Z = 7.053624599660188E-02
 VX= 1.834277714417118E-03 VY= 1.618981601938306E-02 VZ= 4.867864346716320E-05
 LT= 1.080744343560428E-01 RG= 1.871250823805333E+01 RR= 1.626134188433059E-02
2463658.600000000 = A.D. 2033-Mar-02 02:24:00.0000 TDB 
 X = 9.355843412051541E-01 Y = 1.868965038460130E+01 Z = 7.053827406779703E-02
 VX= 1.822302349628850E-03 VY= 1.619381042825455E-02 VZ= 4.866888586060528E-05
 LT= 1.080783480010755E-01 RG= 1.871318586468494E+01 RR= 1.626473482719165E-02
2463658.641666667 = A.D. 2033-Mar-02 03:24:00.0000 TDB 
 X = 9.356600209223530E-01 Y = 1.869032520975560E+01 Z = 7.054030174427234E-02
 VX= 1.810323519583899E-03 VY= 1.619779539779502E-02 VZ= 4.865965250317348E-05
 LT= 1.080822624614452E-01 RG= 1.871386363248777E+01 RR= 1.626811808899457E-02
2463658.683333333 = A.D. 2033-Mar-02 04:24:00.0000 TDB 
 X = 9.357352014532421E-01 Y = 1.869100020075237E+01 Z = 7.054232904359548E-02
 VX= 1.798341431174179E-03 VY= 1.620177085870407E-02 VZ= 4.865076612305901E-05
 LT= 1.080861777348142E-01 RG= 1.871454154105707E+01 RR= 1.627149161117601E-02
2463658.725000000 = A.D. 2033-Mar-02 05:24:00.0000 TDB 
 X = 9.358098826645527E-01 Y = 1.869167535719470E+01 Z = 7.054435597896731E-02
 VX= 1.786356192495560E-03 VY= 1.620573678299505E-02 VZ= 4.864218342291957E-05
 LT= 1.080900938188355E-01 RG= 1.871521958998645E+01 RR= 1.627485537200219E-02
2463658.766666667 = A.D. 2033-Mar-02 06:24:00.0000 TDB 
 X = 9.358840644263441E-01 Y = 1.869235067868508E+01 Z = 7.054638256352974E-02
 VX= 1.774367861599268E-03 VY= 1.620969316486753E-02 VZ= 4.863393646186068E-05
 LT= 1.080940107111596E-01 RG= 1.871589777886913E+01 RR= 1.627820936968086E-02
2463658.808333333 = A.D. 2033-Mar-02 07:24:00.0000 TDB 
 X = 9.359577466106095E-01 Y = 1.869302616482596E+01 Z = 7.054840881260330E-02
 VX= 1.762376477188281E-03 VY= 1.621364000823216E-02 VZ= 4.862609281615593E-05
 LT= 1.080979284094377E-01 RG= 1.871657610729842E+01 RR= 1.628155361128613E-02
2463658.850000000 = A.D. 2033-Mar-02 08:24:00.0000 TDB 
 X = 9.360309290908791E-01 Y = 1.869370181522003E+01 Z = 7.055043474460750E-02
 VX= 1.750382076451248E-03 VY= 1.621757731906176E-02 VZ= 4.861872975141807E-05
 LT= 1.081018469113233E-01 RG= 1.871725457486803E+01 RR= 1.628488810591340E-02
2463658.891666667 = A.D. 2033-Mar-02 09:24:00.0000 TDB 
 X = 9.361036117423688E-01 Y = 1.869437762947021E+01 Z = 7.055246038108878E-02
 VX= 1.738384704040225E-03 VY= 1.622150510114550E-02 VZ= 4.861191861938298E-05
 LT= 1.081057662144715E-01 RG= 1.871793318117198E+01 RR= 1.628821286082901E-02
2463658.933333333 = A.D. 2033-Mar-02 10:24:00.0000 TDB 
 X = 9.361757944423724E-01 Y = 1.869505360717945E+01 Z = 7.055448574629256E-02
 VX= 1.726384415228243E-03 VY= 1.622542335415468E-02 VZ= 4.860571650938256E-05
 LT= 1.081096863165393E-01 RG= 1.871861192580455E+01 RR= 1.629152787966503E-02
2463658.975000000 = A.D. 2033-Mar-02 11:24:00.0000 TDB 
 X = 9.362474770707047E-01 Y = 1.869572974795064E+01 Z = 7.055651086647871E-02
 VX= 1.714381275497500E-03 VY= 1.622933207319840E-02 VZ= 4.860016285979621E-05
 LT= 1.081136072151836E-01 RG= 1.871929080836006E+01 RR= 1.629483316194221E-02
2463659.016666667 = A.D. 2033-Mar-02 12:24:00.0000 TDB 
 X = 9.363186595100839E-01 Y = 1.869640605138634E+01 Z = 7.055853576918052E-02
 VX= 1.702375358181332E-03 VY= 1.623323124926538E-02 VZ= 4.859527928770406E-05
 LT= 1.081175289080608E-01 RG= 1.871996982843275E+01 RR= 1.629812870339276E-02
2463659.058333333 = A.D. 2033-Mar-02 13:24:00.0000 TDB 
 X = 9.363893416463916E-01 Y = 1.869708251708870E+01 Z = 7.056056048247869E-02
 VX= 1.690366741288323E-03 VY= 1.623712087012108E-02 VZ= 4.859107134336704E-05
 LT= 1.081214513928262E-01 RG= 1.872064898561662E+01 RR= 1.630141449670419E-02
